NORAD_CAT_ID,OBJECT_NAME,OBJECT_TYPE,EPOCH,MEAN_MOTION,ECCENTRICITY,INCLINATION,RA_OF_ASC_NODE,ARG_OF_PERICENTER,MEAN_ANOMALY,BSTAR,MEAN_MOTION_DOT,MEAN_MOTION_DDOT,TLE_LINE0,TLE_LINE1,TLE_LINE2,SEMIMAJOR_AXIS,PERIOD,APOGEE,PERIGEE,DECAYED
52600.0,STARLINK-4026,PAYLOAD,2022-06-25 14:00:01,15.40208165,0.0001509,53.2175,235.693,44.7037,289.5287,-0.019036,-0.00717706,0.0,0 STARLINK-4026,1 52600U 22052C   22176.58334491 -.00717706  00000-0 -19036-1 0  9999,2 52600  53.2175 235.6930 0001509  44.7037 289.5287 15.40208165  1303,6823.630999999999,93.494,446.526,444.467,0.0
52600.0,STARLINK-4026,PAYLOAD,2022-06-25 22:00:00,15.39699197,0.0001512,53.2175,234.1219,40.0373,343.1718,-0.01943,-0.00720103,0.0,0 STARLINK-4026,1 52600U 22052C   22176.91667824 -.00720103  00000-0 -19430-1 0  9998,2 52600  53.2175 234.1219 0001512  40.0373 343.1718 15.39699197  1306,6825.135,93.525,448.032,445.968,0.0
52600.0,STARLINK-4026,PAYLOAD,2022-06-26 06:00:00,15.39189573,0.000197,53.2175,232.554,30.142,41.4297,-0.019765,-0.00720336,0.0,0 STARLINK-4026,1 52600U 22052C   22177.25001157 -.00720336  00000-0 -19765-1 0  9996,2 52600  53.2175 232.5540 0001970  30.1420  41.4297 15.39189573  7023,6826.642,93.556,449.851,447.162,0.0
52600.0,STARLINK-4026,PAYLOAD,2022-06-26 14:00:01,15.38675046,0.0001734,53.2174,230.9887,38.4557,80.931,-0.019872,-0.00712638,0.0,0 STARLINK-4026,1 52600U 22052C   22177.58335648 -.00712638  00000-0 -19872-1 0  9992,2 52600  53.2174 230.9887 0001734  38.4557  80.9310 15.38675046  1301,6828.163000000001,93.587,451.212,448.844,0.0
52600.0,STARLINK-4026,PAYLOAD,2022-06-26 22:00:00,15.38167558,0.0001691,53.2174,229.4213,43.2113,123.2489,-0.020323,-0.00716454,0.0,0 STARLINK-4026,1 52600U 22052C   22177.91667824 -.00716454  00000-0 -20323-1 0  9996,2 52600  53.2174 229.4213 0001691  43.2113 123.2489 15.38167558  1303,6829.665,93.618,452.685,450.375,0.0
52600.0,STARLINK-4026,PAYLOAD,2022-06-27 14:00:01,15.37145723,0.0001764,53.2175,226.2954,40.5456,218.3504,-0.020892,-0.00712649,0.0,0 STARLINK-4026,1 52600U 22052C   22178.58334491 -.00712649  00000-0 -20892-1 0  9994,2 52600  53.2175 226.2954 0001764  40.5456 218.3504 15.37145723  7222,6832.691999999999,93.68,455.762,453.351,0.0
52600.0,STARLINK-4026,PAYLOAD,2022-06-27 22:00:00,15.36638377,0.0001737,53.2176,224.7315,36.398,267.7974,-0.021405,-0.00717786,0.0,0 STARLINK-4026,1 52600U 22052C   22178.91667824 -.00717786  00000-0 -21405-1 0  9998,2 52600  53.2176 224.7315 0001737  36.3980 267.7974 15.36638377  1305,6834.195,93.711,457.247,454.87300000000016,0.0
52600.0,STARLINK-4026,PAYLOAD,2022-06-28 14:00:01,15.35617338,0.0001685,53.2175,221.613,35.4145,357.5397,-0.022037,-0.00715177,0.0,0 STARLINK-4026,1 52600U 22052C   22179.58334491 -.00715177  00000-0 -22037-1 0  9997,2 52600  53.2175 221.6130 0001685  35.4145 357.5397 15.35617338  7384,6837.224,93.773,460.242,457.937,0.0
52600.0,STARLINK-4026,PAYLOAD,2022-06-28 22:00:00,15.35107461,0.0001866,53.2176,220.0527,29.9446,46.4716,-0.022437,-0.00716249,0.0,0 STARLINK-4026,1 52600U 22052C   22179.91667824 -.00716249  00000-0 -22437-1 0  9998,2 52600  53.2176 220.0527 0001866  29.9446  46.4716 15.35107461  1307,6838.738,93.805,461.879,459.327,0.0
52600.0,STARLINK-4026,PAYLOAD,2022-06-29 14:00:01,15.34085661,0.0001863,53.2174,216.9412,34.6098,126.9419,-0.023048,-0.0071238,0.0,0 STARLINK-4026,1 52600U 22052C   22180.58334491 -.00712380  00000-0 -23048-1 0  9995,2 52600  53.2174 216.9412 0001863  34.6098 126.9419 15.34085661  1305,6841.775,93.867,464.914,462.365,0.0
52600.0,STARLINK-4026,PAYLOAD,2022-06-29 22:00:00,15.33576634,0.0001739,53.2175,215.3845,41.4,161.7749,-0.023488,-0.00714138,0.0,0 STARLINK-4026,1 52600U 22052C   22180.91667824 -.00714138  00000-0 -23488-1 0  9992,2 52600  53.2175 215.3845 0001739  41.4000 161.7749 15.33576634  1307,6843.2890000000025,93.898,466.344,463.964,0.0
52600.0,STARLINK-4026,PAYLOAD,2022-06-30 14:00:01,15.32557637,0.0001568,53.2173,212.2804,45.8567,238.7226,-0.024285,-0.00714813,0.0,0 STARLINK-4026,1 52600U 22052C   22181.58334491 -.00714813  00000-0 -24285-1 0  9993,2 52600  53.2173 212.2804 0001568  45.8567 238.7226 15.32557637  1308,6846.321999999999,93.961,469.26,467.11300000000006,0.0
52600.0,STARLINK-4026,PAYLOAD,2022-06-30 22:00:00,15.320461800000002,0.000167,53.2174,210.7275,37.4557,286.9096,-0.024629,-0.00713457,0.0,0 STARLINK-4026,1 52600U 22052C   22181.91667824 -.00713457  00000-0 -24629-1 0  9994,2 52600  53.2174 210.7275 0001670  37.4557 286.9096 15.32046180  7744,6847.845,93.992,470.854,468.567,0.0
52600.0,STARLINK-4026,PAYLOAD,2022-07-01 14:00:01,15.31028166,0.0001544,53.2172,207.6305,43.1179,358.9747,-0.025502,-0.0071533,0.0,0 STARLINK-4026,1 52600U 22052C   22182.58334491 -.00715330  00000-0 -25502-1 0  9992,2 52600  53.2172 207.6305 0001544  43.1179 358.9747 15.31028166  1307,6850.88,94.054,473.80300000000005,471.68800000000016,0.0
52600.0,STARLINK-4026,PAYLOAD,2022-07-01 22:00:00,15.30516948,0.0001608,53.2174,206.0811,41.4231,38.6171,-0.025895,-0.00714885,0.0,0 STARLINK-4026,1 52600U 22052C   22182.91667824 -.00714885  00000-0 -25895-1 0  9997,2 52600  53.2174 206.0811 0001608  41.4231  38.6171 15.30516948  7897,6852.406,94.086,475.37300000000016,473.169,0.0
52600.0,STARLINK-4026,PAYLOAD,2022-07-02 14:00:01,15.29498223,0.0001674,53.2172,202.9914,45.5538,108.5373,-0.026761,-0.00715692,0.0,0 STARLINK-4026,1 52600U 22052C   22183.58334491 -.00715692  00000-0 -26761-1 0  9992,2 52600  53.2172 202.9914 0001674  45.5538 108.5373 15.29498223  1306,6855.448,94.149,478.461,476.166,0.0
52600.0,STARLINK-4026,PAYLOAD,2022-07-02 22:00:00,15.28987848,0.0001703,53.2172,201.4457,44.4003,145.7994,-0.027195,-0.00715885,0.0,0 STARLINK-4026,1 52600U 22052C   22183.91667824 -.00715885  00000-0 -27195-1 0  9994,2 52600  53.2172 201.4457 0001703  44.4003 145.7994 15.28987848  1307,6856.974,94.18,480.006,477.671,0.0
52600.0,STARLINK-4026,PAYLOAD,2022-07-03 00:00:00,15.28859778,0.0001591,53.2175,201.0597,46.3485,242.7825,-0.027264,-0.00714929,0.0,0 STARLINK-4026,1 52600U 22052C   22184.00001157 -.00714929  00000-0 -27264-1 0  9991,2 52600  53.2175 201.0597 0001591  46.3485 242.7825 15.28859778  8062,6857.357,94.188,480.31300000000016,478.131,0.0
52600.0,STARLINK-4026,PAYLOAD,2022-07-03 14:00:01,15.27970143,0.0001617,53.2171,198.3631,46.7791,213.7947,-0.028192,-0.00727318,0.0,0 STARLINK-4026,1 52600U 22052C   22184.58334491 -.00727318  00000-0 -28192-1 0  9991,2 52600  53.2171 198.3631 0001617  46.7791 213.7947 15.27970143  1300,6860.018,94.243,482.992,480.774,0.0
52600.0,STARLINK-4026,PAYLOAD,2022-07-03 22:00:00,15.27456354,0.0001524,53.2173,196.8211,48.1096,246.7356,-0.028393,-0.00721461,0.0,0 STARLINK-4026,1 52600U 22052C   22184.91667824 -.00721461  00000-0 -28393-1 0  9993,2 52600  53.2173 196.8211 0001524  48.1096 246.7356 15.27456354  1303,6861.556,94.274,484.467,482.376,0.0
52600.0,STARLINK-4026,PAYLOAD,2022-07-04 06:00:00,15.26947738,0.0001714,53.2174,195.2834,39.4905,289.009,-0.028903,-0.00723012,0.0,0 STARLINK-4026,1 52600U 22052C   22185.25001157 -.00723012  00000-0 -28903-1 0  9993,2 52600  53.2174 195.2834 0001714  39.4905 289.0090 15.26947738  8257,6863.08,94.306,486.121,483.769,0.0
52600.0,STARLINK-4026,PAYLOAD,2022-07-04 14:00:01,15.26440001,0.0001435,53.2171,193.7456,50.1523,311.3897,-0.029511,-0.00726603,0.0,0 STARLINK-4026,1 52600U 22052C   22185.58334491 -.00726603  00000-0 -29511-1 0  9994,2 52600  53.2171 193.7456 0001435  50.1523 311.3897 15.26440001  1318,6864.602,94.337,487.452,485.482,0.0
52600.0,STARLINK-4026,PAYLOAD,2022-07-04 22:00:00,15.25926136,0.0001514,53.2172,192.2071,45.1702,348.805,-0.029736,-0.007212,0.0,0 STARLINK-4026,1 52600U 22052C   22185.91667824 -.00721200  00000-0 -29736-1 0  9997,2 52600  53.2172 192.2071 0001514  45.1702 348.8050 15.25926136  1309,6866.143,94.369,489.047,486.968,0.0
52600.0,STARLINK-4026,PAYLOAD,2022-07-05 08:00:01,15.25291,0.0002042,53.2174,190.2899,35.8731,127.776,-0.030451,-0.00724331,0.0,0 STARLINK-4026,1 52600U 22052C   22186.33334491 -.00724331  00000-0 -30451-1 0  9999,2 52600  53.2174 190.2899 0002042  35.8731 127.7760 15.25291000  8418,6868.049,94.408,491.316,488.511,0.0
52600.0,STARLINK-4026,PAYLOAD,2022-07-05 14:00:01,15.249082199999998,0.0001518,53.2171,189.1388,50.0823,46.9135,-0.030759,-0.00723266,0.0,0 STARLINK-4026,1 52600U 22052C   22186.58334491 -.00723266  00000-0 -30759-1 0  9993,2 52600  53.2171 189.1388 0001518  50.0823  46.9135 15.24908220  1300,6869.198,94.432,492.106,490.02,0.0
52600.0,STARLINK-4026,PAYLOAD,2022-07-05 22:00:00,15.24398388,0.0001678,53.2174,187.6042,44.8198,82.7691,-0.031309,-0.00724897,0.0,0 STARLINK-4026,1 52600U 22052C   22186.91667824 -.00724897  00000-0 -31309-1 0  9992,2 52600  53.2174 187.6042 0001678  44.8198  82.7691 15.24398388  1309,6870.73,94.463,493.747,491.442,0.0
52600.0,STARLINK-4026,PAYLOAD,2022-07-06 14:00:01,15.23378599,0.0001691,53.2172,184.5429,47.6273,139.3064,-0.032241,-0.00724082,0.0,0 STARLINK-4026,1 52600U 22052C   22187.58334491 -.00724082  00000-0 -32241-1 0  9999,2 52600  53.2172 184.5429 0001691  47.6273 139.3064 15.23378599  1306,6873.795999999999,94.527,496.823,494.49800000000016,0.0
52600.0,STARLINK-4026,PAYLOAD,2022-07-06 16:00:00,15.23252685,0.0001546,53.2174,184.1599,50.1628,234.0167,-0.032521,-0.00727377,0.0,0 STARLINK-4026,1 52600U 22052C   22187.66667824 -.00727377  00000-0 -32521-1 0  9998,2 52600  53.2174 184.1599 0001546  50.1628 234.0167 15.23252685  8620,6874.174,94.535,497.102,494.977,0.0
52600.0,STARLINK-4026,PAYLOAD,2022-07-06 22:00:00,15.22868714,0.0001603,53.2173,183.0118,52.1802,163.5081,-0.032789,-0.0072518999999999,0.0,0 STARLINK-4026,1 52600U 22052C   22187.91667824 -.00725190  00000-0 -32789-1 0  9993,2 52600  53.2173 183.0118 0001603  52.1802 163.5081 15.22868714  1308,6875.33,94.558,498.297,496.093,0.0
